{
  "type": "FeatureCollection",
  "features": [
    {
      "type": "Feature",
      "properties": {
        "norad_id": 37238,
        "name": "INTELSAT 17 (IS-17)",
        "group": "intelsat",
        "lat": 0.02923949481461153,
        "lon": 147.73198175983683,
        "alt_km": 35794.89120820187,
        "timestamp": "2025-12-18T23:35:48.715098+00:00",
        "meta_object_name": "INTELSAT 17 (IS-17)",
        "meta_object_id": "2010-065B",
        "meta_epoch": "2025-12-18T13:36:32.372640",
        "meta_mean_motion": 1.00271149,
        "meta_eccentricity": 0.00027365,
        "meta_inclination": 0.0241,
        "meta_ra_of_asc_node": 60.7923,
        "meta_arg_of_pericenter": 225.4994,
        "meta_mean_anomaly": 71.245,
        "meta_ephemeris_type": 0,
        "meta_classification_type": "U",
        "meta_norad_cat_id": 37238,
        "meta_element_set_no": 999,
        "meta_rev_at_epoch": 5143,
        "meta_bstar": 0,
        "meta_mean_motion_dot": 0,
        "meta_mean_motion_ddot": 0,
        "tle_line1": "1 37238U 10065B   25352.56704135  .00000000  00000+0  00000+0 0  9991",
        "tle_line2": "2 37238   0.0241  60.7923 0002736 225.4994  71.2450  1.00271149 51439"
      },
      "geometry": {
        "type": "Point",
        "coordinates": [
          147.73198175983683,
          0.02923949481461153
        ]
      }
    },
    {
      "type": "Feature",
      "properties": {
        "norad_id": 37392,
        "name": "INTELSAT 28 (IS-28)",
        "group": "intelsat",
        "lat": -0.7422325726606301,
        "lon": 50.13017532675669,
        "alt_km": 35798.32530327978,
        "timestamp": "2025-12-18T23:35:48.715110+00:00",
        "meta_object_name": "INTELSAT 28 (IS-28)",
        "meta_object_id": "2011-016A",
        "meta_epoch": "2025-12-18T11:25:59.877408",
        "meta_mean_motion": 1.00270518,
        "meta_eccentricity": 0.00036749,
        "meta_inclination": 1.3387,
        "meta_ra_of_asc_node": 84.9936,
        "meta_arg_of_pericenter": 186.1961,
        "meta_mean_anomaly": 315.9642,
        "meta_ephemeris_type": 0,
        "meta_classification_type": "U",
        "meta_norad_cat_id": 37392,
        "meta_element_set_no": 999,
        "meta_rev_at_epoch": 5147,
        "meta_bstar": 0,
        "meta_mean_motion_dot": -2.01e-06,
        "meta_mean_motion_ddot": 0,
        "tle_line1": "1 37392U 11016A   25352.47638747 -.00000201  00000+0  00000+0 0  9998",
        "tle_line2": "2 37392   1.3387  84.9936 0003674 186.1961 315.9642  1.00270518 51470"
      },
      "geometry": {
        "type": "Point",
        "coordinates": [
          50.13017532675669,
          -0.7422325726606301
        ]
      }
    },
    {
      "type": "Feature",
      "properties": {
        "norad_id": 37834,
        "name": "INTELSAT 18 (IS-18)",
        "group": "intelsat",
        "lat": -0.029069791263064363,
        "lon": -98.22918200557496,
        "alt_km": 35779.32082197039,
        "timestamp": "2025-12-18T23:35:48.715122+00:00",
        "meta_object_name": "INTELSAT 18 (IS-18)",
        "meta_object_id": "2011-056A",
        "meta_epoch": "2025-12-18T13:13:38.413056",
        "meta_mean_motion": 1.00272256,
        "meta_eccentricity": 0.00016643,
        "meta_inclination": 0.0234,
        "meta_ra_of_asc_node": 289.5104,
        "meta_arg_of_pericenter": 352.8895,
        "meta_mean_anomaly": 183.4193,
        "meta_ephemeris_type": 0,
        "meta_classification_type": "U",
        "meta_norad_cat_id": 37834,
        "meta_element_set_no": 999,
        "meta_rev_at_epoch": 5200,
        "meta_bstar": 0,
        "meta_mean_motion_dot": 7.8e-07,
        "meta_mean_motion_ddot": 0,
        "tle_line1": "1 37834U 11056A   25352.55113904  .00000078  00000+0  00000+0 0  9996",
        "tle_line2": "2 37834   0.0234 289.5104 0001664 352.8895 183.4193  1.00272256 52003"
      },
      "geometry": {
        "type": "Point",
        "coordinates": [
          -98.22918200557496,
          -0.029069791263064363
        ]
      }
    },
    {
      "type": "Feature",
      "properties": {
        "norad_id": 38098,
        "name": "INTELSAT 22 (IS-22)",
        "group": "intelsat",
        "lat": 0.0035333077311121668,
        "lon": 153.87283183090298,
        "alt_km": 35791.401845156455,
        "timestamp": "2025-12-18T23:35:48.715135+00:00",
        "meta_object_name": "INTELSAT 22 (IS-22)",
        "meta_object_id": "2012-011A",
        "meta_epoch": "2025-12-18T13:38:17.206080",
        "meta_mean_motion": 1.00270235,
        "meta_eccentricity": 0.00018183,
        "meta_inclination": 0.0164,
        "meta_ra_of_asc_node": 100.4627,
        "meta_arg_of_pericenter": 183.0382,
        "meta_mean_anomaly": 80.6113,
        "meta_ephemeris_type": 0,
        "meta_classification_type": "U",
        "meta_norad_cat_id": 38098,
        "meta_element_set_no": 999,
        "meta_rev_at_epoch": 537,
        "meta_bstar": 0,
        "meta_mean_motion_dot": -3.3e-07,
        "meta_mean_motion_ddot": 0,
        "tle_line1": "1 38098U 12011A   25352.56825470 -.00000033  00000+0  00000+0 0  9992",
        "tle_line2": "2 38098   0.0164 100.4627 0001818 183.0382  80.6113  1.00270235  5378"
      },
      "geometry": {
        "type": "Point",
        "coordinates": [
          153.87283183090298,
          0.0035333077311121668
        ]
      }
    },
    {
      "type": "Feature",
      "properties": {
        "norad_id": 38356,
        "name": "INTELSAT 19 (IS-19)",
        "group": "intelsat",
        "lat": -0.03692453956064723,
        "lon": -112.22860295631958,
        "alt_km": 35775.458486288946,
        "timestamp": "2025-12-18T23:35:48.715147+00:00",
        "meta_object_name": "INTELSAT 19 (IS-19)",
        "meta_object_id": "2012-030A",
        "meta_epoch": "2025-12-18T14:05:07.135296",
        "meta_mean_motion": 1.00270444,
        "meta_eccentricity": 0.00027068,
        "meta_inclination": 0.0103,
        "meta_ra_of_asc_node": 338.5215,
        "meta_arg_of_pericenter": 285.7195,
        "meta_mean_anomaly": 200.4886,
        "meta_ephemeris_type": 0,
        "meta_classification_type": "U",
        "meta_norad_cat_id": 38356,
        "meta_element_set_no": 999,
        "meta_rev_at_epoch": 4864,
        "meta_bstar": 0,
        "meta_mean_motion_dot": -3.1e-07,
        "meta_mean_motion_ddot": 0,
        "tle_line1": "1 38356U 12030A   25352.58688814 -.00000031  00000+0  00000+0 0  9999",
        "tle_line2": "2 38356   0.0103 338.5215 0002706 285.7195 200.4886  1.00270444 48642"
      },
      "geometry": {
        "type": "Point",
        "coordinates": [
          -112.22860295631958,
          -0.03692453956064723
        ]
      }
    },
    {
      "type": "Feature",
      "properties": {
        "norad_id": 38740,
        "name": "INTELSAT 20 (IS-20)",
        "group": "intelsat",
        "lat": 0.015480173188290949,
        "lon": 150.23983341695168,
        "alt_km": 35776.65971808886,
        "timestamp": "2025-12-18T23:35:48.715159+00:00",
        "meta_object_name": "INTELSAT 20 (IS-20)",
        "meta_object_id": "2012-043A",
        "meta_epoch": "2025-12-18T13:37:17.300640",
        "meta_mean_motion": 1.0026598,
        "meta_eccentricity": 0.00032604,
        "meta_inclination": 0.0048,
        "meta_ra_of_asc_node": 36.6097,
        "meta_arg_of_pericenter": 149.7129,
        "meta_mean_anomaly": 173.9185,
        "meta_ephemeris_type": 0,
        "meta_classification_type": "U",
        "meta_norad_cat_id": 38740,
        "meta_element_set_no": 999,
        "meta_rev_at_epoch": 4893,
        "meta_bstar": 0,
        "meta_mean_motion_dot": 2e-08,
        "meta_mean_motion_ddot": 0,
        "tle_line1": "1 38740U 12043A   25352.56756135  .00000002  00000+0  00000+0 0  9997",
        "tle_line2": "2 38740   0.0048  36.6097 0003260 149.7129 173.9185  1.00265980 48930"
      },
      "geometry": {
        "type": "Point",
        "coordinates": [
          150.23983341695168,
          0.015480173188290949
        ]
      }
    },
    {
      "type": "Feature",
      "properties": {
        "norad_id": 38749,
        "name": "INTELSAT 21 (IS-21)",
        "group": "intelsat",
        "lat": 0.03973045484664406,
        "lon": 23.785014035931642,
        "alt_km": 35791.844177418556,
        "timestamp": "2025-12-18T23:35:48.715171+00:00",
        "meta_object_name": "INTELSAT 21 (IS-21)",
        "meta_object_id": "2012-045A",
        "meta_epoch": "2025-12-18T13:01:05.767968",
        "meta_mean_motion": 1.0026864,
        "meta_eccentricity": 0.00018222,
        "meta_inclination": 0.0304,
        "meta_ra_of_asc_node": 283.9674,
        "meta_arg_of_pericenter": 330.944,
        "meta_mean_anomaly": 329.7603,
        "meta_ephemeris_type": 0,
        "meta_classification_type": "U",
        "meta_norad_cat_id": 38749,
        "meta_element_set_no": 999,
        "meta_rev_at_epoch": 4871,
        "meta_bstar": 0,
        "meta_mean_motion_dot": -2.6e-06,
        "meta_mean_motion_ddot": 0,
        "tle_line1": "1 38749U 12045A   25352.54242787 -.00000260  00000+0  00000+0 0  9996",
        "tle_line2": "2 38749   0.0304 283.9674 0001822 330.9440 329.7603  1.00268640 48712"
      },
      "geometry": {
        "type": "Point",
        "coordinates": [
          23.785014035931642,
          0.03973045484664406
        ]
      }
    }
  ]
}